GLOBALSTAR M094         
1 39074U 13005C   23253.43115208 -.00000095  00000+0  48468-4 0  9999
2 39074  51.9988 348.2564 0000424  96.0630 264.0284 12.62267166490841
GLOBALSTAR M096         
1 39075U 13005D   23253.44419267 -.00000098  00000+0  33835-4 0  9998
2 39075  52.0091  36.2225 0000421  86.3213 273.7702 12.62268278490097
GLOBALSTAR M078         
1 39076U 13005E   23253.02159481 -.00000176  00000+0 -40530-3 0  9999
2 39076  51.9866 122.8973 0000862 150.8982 209.1932 12.62269960488529
GLOBALSTAR M095         
1 39077U 13005F   23252.57341909 -.00000094  00000+0  51821-4 0  9991
2 39077  51.9791 121.7841 0000246 140.6199 219.4685 12.62268617488114
GLOBALSTAR M087         
1 52888U 22064A   23252.77503029 -.00000097  00000+0  58814-4 0  9998
2 52888  51.9750 109.6350 0009811  14.5673 345.5509 13.37552231 59860
